IRIDIUM 150             
1 43257U 18030J   23271.76072776  .00000471  00000+0  16115-3 0  9998
2 43257  86.4015 345.2458 0001743  80.5647 279.5746 14.34212494287914
IRIDIUM 143             
1 43258U 18030K   23271.74170394  .00000478  00000+0  16360-3 0  9991
2 43258  86.4019 345.3058 0002016 102.0152 258.1270 14.34213348287847
IRIDIUM 161             
1 43478U 18047C   23271.69801191  .00000590  00000+0  16928-3 0  9998
2 43478  86.4512 143.3054 0002189  83.1449 277.0001 14.43290140281986
IRIDIUM 152             
1 43479U 18047D   23271.71443122  .00000430  00000+0  14651-3 0  9992
2 43479  86.3985 143.1578 0001938  92.1148 268.0270 14.34217893280235
IRIDIUM 147             
1 43480U 18047E   23271.72074997  .00000353  00000+0  11915-3 0  9999
2 43480  86.3987 143.1432 0002369  84.5391 275.6075 14.34217662280233
IRIDIUM 110             
1 43481U 18047F   23271.72711246  .00000463  00000+0  15810-3 0  9995
2 43481  86.3989 143.2066 0002287  80.1079 280.0375 14.34219047280225
IRIDIUM 162             
1 43482U 18047G   23271.69169171  .00000589  00000+0  16907-3 0  9993
2 43482  86.4509 143.2115 0002133  83.2443 276.9000 14.43288329281970
IRIDIUM 160             
1 43569U 18061A   23271.60318244  .00000154  00000+0  48096-4 0  9996
2 43569  86.3924 111.6337 0002215  93.6687 266.4762 14.34216950271101
